NORAD_CAT_ID,OBJECT_NAME,OBJECT_TYPE,EPOCH,MEAN_MOTION,ECCENTRICITY,INCLINATION,RA_OF_ASC_NODE,ARG_OF_PERICENTER,MEAN_ANOMALY,BSTAR,MEAN_MOTION_DOT,MEAN_MOTION_DDOT,TLE_LINE0,TLE_LINE1,TLE_LINE2,SEMIMAJOR_AXIS,PERIOD,APOGEE,PERIGEE,DECAYED
49138.0,STARLINK-3058,PAYLOAD,2022-06-10 16:00:16,14.98330504,0.0003217,69.9993,143.7155,266.0141,94.0651,-3.5257e-05,-5.14e-06,0.0,0 STARLINK-3058,1 49138U 21082J   22161.66685623 -.00000514  00000-0 -35257-4 0  9990,2 49138  69.9993 143.7155 0003217 266.0141  94.0651 14.98330504 41064,6950.191,96.107,574.2919999999998,569.82,0.0
49138.0,STARLINK-3058,PAYLOAD,2022-06-11 04:49:21,14.98325401,0.000323,69.9993,142.3689,266.1694,93.9096,9.4384e-05,1.033e-05,0.0,0 STARLINK-3058,1 49138U 21082J   22162.20093917  .00001033  00000-0  94384-4 0  9991,2 49138  69.9993 142.3689 0003230 266.1694  93.9096 14.98325401 41140,6950.206999999999,96.107,574.317,569.827,0.0
49138.0,STARLINK-3058,PAYLOAD,2022-06-11 16:02:17,14.98328752,0.0003185,69.9994,141.1906,265.8661,94.2134,0.00010857,1.203e-05,0.0,0 STARLINK-3058,1 49138U 21082J   22162.66825813  .00001203  00000-0  10857-3 0  9990,2 49138  69.9994 141.1906 0003185 265.8661  94.2134 14.98328752 41216,6950.196999999999,96.107,574.275,569.8480000000002,0.0
49138.0,STARLINK-3058,PAYLOAD,2022-06-12 04:51:21,14.9833123,0.0003181,69.9997,139.8448,266.4156,93.6639,0.00011303,1.256e-05,0.0,0 STARLINK-3058,1 49138U 21082J   22163.20233715  .00001256  00000-0  11303-3 0  9990,2 49138  69.9997 139.8448 0003181 266.4156  93.6639 14.98331230 41292,6950.189,96.107,574.265,569.8430000000002,0.0
49138.0,STARLINK-3058,PAYLOAD,2022-06-12 08:03:37,14.98332436,0.0003162,69.9998,139.5083,266.6838,93.3959,0.00012466,1.395e-05,0.0,0 STARLINK-3058,1 49138U 21082J   22163.33585625  .00001395  00000-0  12466-3 0  9999,2 49138  69.9998 139.5083 0003162 266.6838  93.3959 14.98332436 41317,6950.185,96.107,574.248,569.8530000000002,0.0
49138.0,STARLINK-3058,PAYLOAD,2022-06-12 16:04:18,14.98335405,0.0003161,69.9997,138.6665,266.3699,93.7099,0.00012671,1.419e-05,0.0,0 STARLINK-3058,1 49138U 21082J   22163.66965409  .00001419  00000-0  12671-3 0  9992,2 49138  69.9997 138.6665 0003161 266.3699  93.7099 14.98335405 41366,6950.176,96.107,574.238,569.844,0.0
49138.0,STARLINK-3058,PAYLOAD,2022-06-13 04:53:22,14.98340129,0.0003167,69.9999,137.3198,265.8998,94.1799,0.00016607,1.89e-05,0.0,0 STARLINK-3058,1 49138U 21082J   22164.20372934  .00001890  00000-0  16607-3 0  9994,2 49138  69.9999 137.3198 0003167 265.8998  94.1799 14.98340129 41447,6950.1619999999975,96.106,574.2280000000002,569.825,0.0
49138.0,STARLINK-3058,PAYLOAD,2022-06-13 08:05:38,14.98342051,0.0003152,70.0,136.9831,265.8112,94.2687,0.00018775,2.149e-05,0.0,0 STARLINK-3058,1 49138U 21082J   22164.33724735  .00002149  00000-0  18775-3 0  9994,2 49138  70.0000 136.9831 0003152 265.8112  94.2687 14.98342051 41469,6950.156,96.106,574.211,569.83,0.0
49138.0,STARLINK-3058,PAYLOAD,2022-06-13 16:06:18,14.98345188,0.0003147,70.0,136.1415,265.7535,94.3264,0.00019405,2.224e-05,0.0,0 STARLINK-3058,1 49138U 21082J   22164.67104310  .00002224  00000-0  19405-3 0  9997,2 49138  70.0000 136.1415 0003147 265.7535  94.3264 14.98345188 41513,6950.146,96.106,574.198,569.8240000000002,0.0
49138.0,STARLINK-3058,PAYLOAD,2022-06-14 04:55:23,14.98337129,0.0003115,69.9999,134.7949,265.2473,94.833,8.0818e-05,8.72e-06,0.0,0 STARLINK-3058,1 49138U 21082J   22165.20512937  .00000872  00000-0  80818-4 0  9999,2 49138  69.9999 134.7949 0003115 265.2473  94.8330 14.98337129 41597,6950.170999999999,96.107,574.201,569.871,0.0
49138.0,STARLINK-3058,PAYLOAD,2022-06-14 08:07:39,14.98336744,0.0003112,69.9999,134.4582,265.3704,94.7099,6.7424e-05,7.12e-06,0.0,0 STARLINK-3058,1 49138U 21082J   22165.33864888  .00000712  00000-0  67424-4 0  9999,2 49138  69.9999 134.4582 0003112 265.3704  94.7099 14.98336744 41618,6950.172,96.107,574.2,569.874,0.0
49138.0,STARLINK-3058,PAYLOAD,2022-06-15 04:57:23,14.98339783,0.0003048,70.0001,132.2706,264.5196,95.5615,2.8076e-05,2.42e-06,0.0,0 STARLINK-3058,1 49138U 21082J   22166.20652250  .00000242  00000-0  28076-4 0  9992,2 49138  70.0001 132.2706 0003048 264.5196  95.5615 14.98339783 41746,6950.163000000001,96.106,574.146,569.909,0.0
49138.0,STARLINK-3058,PAYLOAD,2022-06-15 08:09:40,14.98334487,0.0003062,69.9999,131.9339,264.5314,95.5496,-3.3922e-05,-4.98e-06,0.0,0 STARLINK-3058,1 49138U 21082J   22166.34004676 -.00000498  00000-0 -33922-4 0  9991,2 49138  69.9999 131.9339 0003062 264.5314  95.5496 14.98334487 41760,6950.179,96.107,574.172,569.9159999999998,0.0
49138.0,STARLINK-3058,PAYLOAD,2022-06-15 14:34:12,14.98329681,0.0003072,69.9997,131.2605,264.4902,95.5906,-0.00011354,-1.447e-05,0.0,0 STARLINK-3058,1 49138U 21082J   22166.60709125 -.00001447  00000-0 -11354-3 0  9990,2 49138  69.9997 131.2605 0003072 264.4902  95.5906 14.98329681 41801,6950.194,96.107,574.194,569.924,0.0
49138.0,STARLINK-3058,PAYLOAD,2022-06-16 00:11:01,14.98324884,0.0003086,69.9995,130.2501,265.3883,94.6923,-3.2557e-05,-4.81e-06,0.0,0 STARLINK-3058,1 49138U 21082J   22167.00765269 -.00000481  00000-0 -32557-4 0  9992,2 49138  69.9995 130.2501 0003086 265.3883  94.6923 14.98324884 41861,6950.209,96.107,574.219,569.929,0.0
49138.0,STARLINK-3058,PAYLOAD,2022-06-19 03:29:19,14.98333188,0.0002797,70.0006,122.3388,262.6166,97.4675,0.000122,1.363e-05,0.0,0 STARLINK-3058,1 49138U 21082J   22170.14536727  .00001363  00000-0  12200-3 0  9996,2 49138  70.0006 122.3388 0002797 262.6166  97.4675 14.98333188 42339,6950.183000000001,96.107,573.992,570.104,0.0
49138.0,STARLINK-3058,PAYLOAD,2022-06-19 14:42:15,14.98334259,0.0002833,70.0,121.1613,263.7323,96.3513,0.00017964,2.051e-05,0.0,0 STARLINK-3058,1 49138U 21082J   22170.61268407  .00002051  00000-0  17964-3 0  9992,2 49138  70.0000 121.1613 0002833 263.7323  96.3513 14.98334259 42406,6950.18,96.107,574.014,570.076,0.0
49138.0,STARLINK-3058,PAYLOAD,2022-06-19 21:06:48,14.9833108,0.0002812,70.0002,120.4883,263.7166,96.3673,0.00011506,1.28e-05,0.0,0 STARLINK-3058,1 49138U 21082J   22170.87972745  .00001280  00000-0  11506-3 0  9996,2 49138  70.0002 120.4883 0002812 263.7166  96.3673 14.98331080 42441,6950.19,96.107,574.009,570.1,0.0
49138.0,STARLINK-3058,PAYLOAD,2022-06-20 03:31:20,14.98331702,0.0002846,70.0004,119.815,263.4999,96.5836,8.3032e-05,8.98e-06,0.0,0 STARLINK-3058,1 49138U 21082J   22171.14676806  .00000898  00000-0  83032-4 0  9994,2 49138  70.0004 119.8150 0002846 263.4999  96.5836 14.98331702 42488,6950.188,96.107,574.031,570.075,0.0
49138.0,STARLINK-3058,PAYLOAD,2022-06-20 06:43:36,14.9833267,0.0002838,70.0005,119.4783,263.4096,96.674,9.0789e-05,9.91e-06,0.0,0 STARLINK-3058,1 49138U 21082J   22171.28028711  .00000991  00000-0  90789-4 0  9996,2 49138  70.0005 119.4783 0002838 263.4096  96.6740 14.98332670 42509,6950.185,96.107,574.0219999999998,570.077,0.0
49138.0,STARLINK-3058,PAYLOAD,2022-06-21 13:10:09,14.98331244,0.0002937,70.0004,116.2804,261.9385,98.1441,-1.6401e-06,-1.13e-06,0.0,0 STARLINK-3058,1 49138U 21082J   22172.54872416 -.00000113  00000-0 -16401-5 0  9993,2 49138  70.0004 116.2804 0002937 261.9385  98.1441 14.98331244 42692,6950.189,96.107,574.095,570.013,0.0
49138.0,STARLINK-3058,PAYLOAD,2022-06-21 21:10:49,14.98331807,0.0002951,70.0002,115.4387,262.3164,97.766,6.5069e-05,6.84e-06,0.0,0 STARLINK-3058,1 49138U 21082J   22172.88252152  .00000684  00000-0  65069-4 0  9993,2 49138  70.0002 115.4387 0002951 262.3164  97.7660 14.98331807 42742,6950.187,96.107,574.1030000000002,570.001,0.0
49138.0,STARLINK-3058,PAYLOAD,2022-06-22 13:12:11,14.98324075,0.0002981,70.0002,113.7555,262.2594,97.8226,-9.0055e-05,-1.167e-05,0.0,0 STARLINK-3058,1 49138U 21082J   22173.55012938 -.00001167  00000-0 -90055-4 0  9996,2 49138  70.0002 113.7555 0002981 262.2594  97.8226 14.98324075 42848,6950.2109999999975,96.107,574.148,570.004,0.0
49138.0,STARLINK-3058,PAYLOAD,2022-06-23 02:01:15,14.98325788,0.0002997,70.0011,112.4088,260.3027,99.7793,3.0657e-05,2.73e-06,0.0,0 STARLINK-3058,1 49138U 21082J   22174.08420516  .00000273  00000-0  30657-4 0  9997,2 49138  70.0011 112.4088 0002997 260.3027  99.7793 14.98325788 42923,6950.206,96.107,574.154,569.988,0.0
49138.0,STARLINK-3058,PAYLOAD,2022-06-23 13:14:11,14.98329108,0.0002981,70.001,111.2306,261.276,98.8061,6.0268e-05,6.26e-06,0.0,0 STARLINK-3058,1 49138U 21082J   22174.55152317  .00000626  00000-0  60268-4 0  9993,2 49138  70.0010 111.2306 0002981 261.2760  98.8061 14.98329108 42994,6950.196,96.107,574.133,569.989,0.0
49138.0,STARLINK-3058,PAYLOAD,2022-06-24 02:03:15,14.98331474,0.0003021,70.0008,109.8844,261.6168,98.4648,0.00013914,1.568e-05,0.0,0 STARLINK-3058,1 49138U 21082J   22175.08559825  .00001568  00000-0  13914-3 0  9998,2 49138  70.0008 109.8844 0003021 261.6168  98.4648 14.98331474 43079,6950.188,96.107,574.153,569.9540000000002,0.0
49138.0,STARLINK-3058,PAYLOAD,2022-06-24 05:15:31,14.98333467,0.0002995,70.0008,109.5478,261.7361,98.3459,0.00015397,1.745e-05,0.0,0 STARLINK-3058,1 49138U 21082J   22175.21911687  .00001745  00000-0  15397-3 0  9995,2 49138  70.0008 109.5478 0002995 261.7361  98.3459 14.98333467 43099,6950.182,96.107,574.129,569.966,0.0
49138.0,STARLINK-3058,PAYLOAD,2022-06-24 21:16:53,14.98325244,0.0002988,70.0008,107.8649,262.05400000000003,98.028,5.2455e-05,5.33e-06,0.0,0 STARLINK-3058,1 49138U 21082J   22175.88672574  .00000533  00000-0  52455-4 0  9998,2 49138  70.0008 107.8649 0002988 262.0540  98.0280 14.98325244 43199,6950.208000000001,96.107,574.149,569.996,0.0
49138.0,STARLINK-3058,PAYLOAD,2022-06-25 03:41:25,14.9832762,0.0003065,70.0008,107.1917,261.9278,98.1533,1.6233e-05,1.01e-06,0.0,0 STARLINK-3058,1 49138U 21082J   22176.15376607  .00000101  00000-0  16233-4 0  9992,2 49138  70.0008 107.1917 0003065 261.9278  98.1533 14.98327620 43230,6950.2,96.107,574.195,569.935,0.0
